NORAD_CAT_ID,OBJECT_NAME,OBJECT_TYPE,EPOCH,MEAN_MOTION,ECCENTRICITY,INCLINATION,RA_OF_ASC_NODE,ARG_OF_PERICENTER,MEAN_ANOMALY,BSTAR,MEAN_MOTION_DOT,MEAN_MOTION_DDOT,TLE_LINE0,TLE_LINE1,TLE_LINE2,SEMIMAJOR_AXIS,PERIOD,APOGEE,PERIGEE,DECAYED
56769.0,STARLINK-5978,PAYLOAD,2024-07-09 11:36:10,14.98330873,0.000259,69.9996,97.9613,269.0054,91.0808,2.6799e-05,2.27e-06,0.0,0 STARLINK-5978,1 56769U 23078C   24191.48346042  .00000227  00000-0  26799-4 0  9999,2 56769  69.9996  97.9613 0002590 269.0054  91.0808 14.98330873 61087,6950.19,96.107,573.855,570.255,0.0
56769.0,STARLINK-5978,PAYLOAD,2024-07-09 21:12:59,14.98332362,0.0002617,69.9995,96.9514,269.0285,91.0574,1.9958e-05,1.45e-06,0.0,0 STARLINK-5978,1 56769U 23078C   24191.88401923  .00000145  00000-0  19958-4 0  9991,2 56769  69.9995  96.9514 0002617 269.0285  91.0574 14.98332362 61143,6950.186,96.107,573.869,570.232,0.0
56769.0,STARLINK-5978,PAYLOAD,2024-07-10 03:37:31,14.98333422,0.0002614,69.9995,96.2782,269.4503,90.6357,3.1324e-05,2.81e-06,0.0,0 STARLINK-5978,1 56769U 23078C   24192.15105788  .00000281  00000-0  31324-4 0  9994,2 56769  69.9995  96.2782 0002614 269.4503  90.6357 14.98333422 61442,6950.182,96.107,573.864,570.231,0.0
56769.0,STARLINK-5978,PAYLOAD,2024-07-10 22:51:08,14.98329553,0.0002625,69.9995,94.2584,269.6405,90.4453,4.321e-05,4.23e-06,0.0,0 STARLINK-5978,1 56769U 23078C   24192.95217946  .00000423  00000-0  43210-4 0  9997,2 56769  69.9995  94.2584 0002625 269.6405  90.4453 14.98329553 61305,6950.194,96.107,573.884,570.235,0.0
56769.0,STARLINK-5978,PAYLOAD,2024-07-11 03:39:32,14.9832958,0.0002626,69.9995,93.7535,269.7479,90.3379,3.7739e-05,3.57e-06,0.0,0 STARLINK-5978,1 56769U 23078C   24193.15245981  .00000357  00000-0  37739-4 0  9995,2 56769  69.9995  93.7535 0002626 269.7479  90.3379 14.98329580 61595,6950.194,96.107,573.884,570.234,0.0
56769.0,STARLINK-5978,PAYLOAD,2024-07-11 16:28:36,14.98333049,0.0002586,69.9996,92.4069,270.1558,89.9305,3.612e-05,3.38e-06,0.0,0 STARLINK-5978,1 56769U 23078C   24193.68653737  .00000338  00000-0  36120-4 0  9997,2 56769  69.9996  92.4069 0002586 270.1558  89.9305 14.98333049 61412,6950.183,96.107,573.846,570.251,0.0
56769.0,STARLINK-5978,PAYLOAD,2024-07-12 03:41:33,14.98334529,0.0002572,69.9996,91.2287,270.0632,90.0232,5.2453e-05,5.33e-06,0.0,0 STARLINK-5978,1 56769U 23078C   24194.15385512  .00000533  00000-0  52453-4 0  9997,2 56769  69.9996  91.2287 0002572 270.0632  90.0232 14.98334529 61740,6950.179,96.107,573.831,570.256,0.0
56769.0,STARLINK-5978,PAYLOAD,2024-07-12 10:06:05,14.98331827,0.0002552,69.9997,90.5552,271.2279,88.8588,2.8534e-05,2.48e-06,0.0,0 STARLINK-5978,1 56769U 23078C   24194.42089699  .00000248  00000-0  28534-4 0  9990,2 56769  69.9997  90.5552 0002552 271.2279  88.8588 14.98331827 61529,6950.187,96.107,573.826,570.279,0.0
56769.0,STARLINK-5978,PAYLOAD,2024-07-12 19:42:54,14.98329149,0.0002553,69.9996,89.5455,272.2932,87.7935,1.3283e-05,6.6e-07,0.0,0 STARLINK-5978,1 56769U 23078C   24194.82145908  .00000066  00000-0  13283-4 0  9993,2 56769  69.9996  89.5455 0002553 272.2932  87.7935 14.98329149 61849,6950.196,96.107,573.835,570.286,0.0
56769.0,STARLINK-5978,PAYLOAD,2024-07-12 22:55:10,14.98329734,0.000255,69.9996,89.209,270.4335,89.6532,1.9776e-05,1.43e-06,0.0,0 STARLINK-5978,1 56769U 23078C   24194.95497839  .00000143  00000-0  19776-4 0  9999,2 56769  69.9996  89.2090 0002550 270.4335  89.6532 14.98329734 61603,6950.194,96.107,573.831,570.286,0.0
56769.0,STARLINK-5978,PAYLOAD,2024-07-13 10:08:06,14.98330697,0.000255,69.9996,88.0307,270.8191,89.2676,2.4158e-05,1.95e-06,0.0,0 STARLINK-5978,1 56769U 23078C   24195.42229760  .00000195  00000-0  24158-4 0  9995,2 56769  69.9996  88.0307 0002550 270.8191  89.2676 14.98330697 61677,6950.191,96.107,573.828,570.283,0.0
56769.0,STARLINK-5978,PAYLOAD,2024-07-13 19:44:54,14.98332681,0.0002573,69.9995,87.0207,270.5052,89.5812,7.8732e-06,1e-08,0.0,0 STARLINK-5978,1 56769U 23078C   24195.82285653  .00000001  00000-0  78732-5 0  9996,2 56769  69.9995  87.0207 0002573 270.5052  89.5812 14.98332681 61997,6950.185,96.107,573.838,570.261,0.0
56769.0,STARLINK-5978,PAYLOAD,2024-07-13 22:57:10,14.98333327,0.000257,69.9996,86.6841,270.3153,89.7712,1.4802e-05,8.4e-07,0.0,0 STARLINK-5978,1 56769U 23078C   24195.95637568  .00000084  00000-0  14802-4 0  9994,2 56769  69.9996  86.6841 0002570 270.3153  89.7712 14.98333327 61757,6950.183,96.107,573.834,570.261,0.0
56769.0,STARLINK-5978,PAYLOAD,2024-07-14 10:10:07,14.98331205,0.0002584,69.9995,85.5058,270.9946,89.0916,1.2415e-05,5.5e-07,0.0,0 STARLINK-5978,1 56769U 23078C   24196.42369644  .00000055  00000-0  12415-4 0  9990,2 56769  69.9995  85.5058 0002584 270.9946  89.0916 14.98331205 61825,6950.189,96.107,573.85,570.258,0.0
56769.0,STARLINK-5978,PAYLOAD,2024-07-14 21:23:03,14.98329214,0.0002615,69.9996,84.3274,270.7966,89.2893,4.3929e-05,4.31e-06,0.0,0 STARLINK-5978,1 56769U 23078C   24196.89101686  .00000431  00000-0  43929-4 0  9993,2 56769  69.9996  84.3274 0002615 270.7966  89.2893 14.98329214 62158,6950.195,96.107,573.878,570.243,0.0
56769.0,STARLINK-5978,PAYLOAD,2024-07-15 10:12:08,14.98330433,0.0002626,69.9995,82.9804,270.361,89.7248,2.569e-05,2.14e-06,0.0,0 STARLINK-5978,1 56769U 23078C   24197.42509646  .00000214  00000-0  25690-4 0  9995,2 56769  69.9995  82.9804 0002626 270.3610  89.7248 14.98330433 61977,6950.192,96.107,573.882,570.231,0.0
56769.0,STARLINK-5978,PAYLOAD,2024-07-15 23:01:12,14.98330637,0.0002655,69.9995,81.634,270.829,89.2565,1.6203e-05,1e-06,0.0,0 STARLINK-5978,1 56769U 23078C   24197.95917622  .00000100  00000-0  16203-4 0  9994,2 56769  69.9995  81.6340 0002655 270.8290  89.2565 14.98330637 62052,6950.191,96.107,573.901,570.211,0.0
56769.0,STARLINK-5978,PAYLOAD,2024-07-16 02:13:28,14.98331773,0.0002645,69.9995,81.2973,270.8825,89.2031,2.8401e-05,2.46e-06,0.0,0 STARLINK-5978,1 56769U 23078C   24198.09269508  .00000246  00000-0  28401-4 0  9997,2 56769  69.9995  81.2973 0002645 270.8825  89.2031 14.98331773 62334,6950.187,96.107,573.891,570.214,0.0
56769.0,STARLINK-5978,PAYLOAD,2024-07-16 21:27:05,14.98331404,0.0002651,69.9996,79.2774,271.0343,89.0513,4.7801e-05,4.77e-06,0.0,0 STARLINK-5978,1 56769U 23078C   24198.89381437  .00000477  00000-0  47801-4 0  9992,2 56769  69.9996  79.2774 0002651 271.0343  89.0513 14.98331404 62194,6950.189,96.107,573.896,570.211,0.0
56769.0,STARLINK-5978,PAYLOAD,2024-07-17 02:15:29,14.98333683,0.0002654,69.9995,78.7724,271.1805,88.905,5.1671e-05,5.24e-06,0.0,0 STARLINK-5978,1 56769U 23078C   24199.09409249  .00000524  00000-0  51671-4 0  9990,2 56769  69.9995  78.7724 0002654 271.1805  88.9050 14.98333683 62486,6950.182,96.107,573.891,570.202,0.0
56769.0,STARLINK-5978,PAYLOAD,2024-07-17 21:29:06,14.98328956,0.0002605,69.9996,76.7524,271.914,88.172,1.2596e-05,5.7e-07,0.0,0 STARLINK-5978,1 56769U 23078C   24199.89521695  .00000057  00000-0  12596-4 0  9992,2 56769  69.9996  76.7524 0002605 271.9140  88.1720 14.98328956 62347,6950.196,96.107,573.872,570.251,0.0
56769.0,STARLINK-5978,PAYLOAD,2024-07-18 02:17:30,14.9832935,0.000255,69.9997,76.248,270.6609,89.4258,3.01e-05,2.66e-06,0.0,0 STARLINK-5978,1 56769U 23078C   24200.09549636  .00000266  00000-0  30100-4 0  9995,2 56769  69.9997  76.2480 0002550 270.6609  89.4258 14.98329350 62630,6950.195,96.107,573.832,570.288,0.0
56769.0,STARLINK-5978,PAYLOAD,2024-07-18 08:42:03,14.98329735,0.0002558,69.9997,75.5744,271.3811,88.7055,1.7705e-05,1.18e-06,0.0,0 STARLINK-5978,1 56769U 23078C   24200.36253658  .00000118  00000-0  17705-4 0  9993,2 56769  69.9997  75.5744 0002558 271.3811  88.7055 14.98329735 62416,6950.194,96.107,573.837,570.281,0.0
56769.0,STARLINK-5978,PAYLOAD,2024-07-18 21:31:07,14.98331946,0.0002591,69.9995,74.2279,267.8756,92.2107,1.8466e-05,1.27e-06,0.0,0 STARLINK-5978,1 56769U 23078C   24200.89661477  .00000127  00000-0  18466-4 0  9998,2 56769  69.9995  74.2279 0002591 267.8756  92.2107 14.98331946 62491,6950.187,96.107,573.853,570.251,0.0
56769.0,STARLINK-5978,PAYLOAD,2024-07-19 08:44:03,14.98331927,0.0002639,69.9994,73.049,270.4849,89.6008,3.4845e-05,3.23e-06,0.0,0 STARLINK-5978,1 56769U 23078C   24201.36393417  .00000323  00000-0  34845-4 0  9994,2 56769  69.9994  73.0490 0002639 270.4849  89.6008 14.98331927 62824,6950.187,96.107,573.886,570.218,0.0
56769.0,STARLINK-5978,PAYLOAD,2024-07-19 21:33:08,14.98330543,0.0002694,69.9993,71.7027,269.2739,90.8112,5.0843e-05,5.14e-06,0.0,0 STARLINK-5978,1 56769U 23078C   24201.89801390  .00000514  00000-0  50843-4 0  9994,2 56769  69.9993  71.7027 0002694 269.2739  90.8112 14.98330543 62642,6950.191,96.107,573.929,570.184,0.0
56769.0,STARLINK-5978,PAYLOAD,2024-07-20 00:45:24,14.98331171,0.0002692,69.9993,71.366,269.3611,90.724,5.6533e-05,5.82e-06,0.0,0 STARLINK-5978,1 56769U 23078C   24202.03153334  .00000582  00000-0  56533-4 0  9996,2 56769  69.9993  71.3660 0002692 269.3611  90.7240 14.98331171 62660,6950.189,96.107,573.925,570.183,0.0
56769.0,STARLINK-5978,PAYLOAD,2024-07-20 21:35:09,14.98328478,0.0002718,69.9993,69.1775,269.2084,90.8764,1.094e-05,3.8e-07,0.0,0 STARLINK-5978,1 56769U 23078C   24202.89941681  .00000038  00000-0  10940-4 0  9998,2 56769  69.9993  69.1775 0002718 269.2084  90.8764 14.98328478 63056,6950.198,96.107,573.952,570.174,0.0
56769.0,STARLINK-5978,PAYLOAD,2024-07-21 15:12:38,14.98331714,0.0002741,69.9994,67.3258,268.919,91.1655,5.9534e-05,6.17e-06,0.0,0 STARLINK-5978,1 56769U 23078C   24203.63377359  .00000617  00000-0  59534-4 0  9991,2 56769  69.9994  67.3258 0002741 268.9190  91.1655 14.98331714 62906,6950.188,96.107,573.958,570.148,0.0
56769.0,STARLINK-5978,PAYLOAD,2024-07-21 21:37:10,14.98332436,0.0002768,69.9994,66.6522,268.8347,91.2495,4.0024e-05,3.85e-06,0.0,0 STARLINK-5978,1 56769U 23078C   24203.90081353  .00000385  00000-0  40024-4 0  9993,2 56769  69.9994  66.6522 0002768 268.8347  91.2495 14.98332436 62943,6950.185,96.107,573.974,570.127,0.0
